BSAT-4B                 
1 46112U 20056A   20252.48539924 -.00000343  00000-0  00000-0 0  9993
2 46112   0.0440 306.1230 0004303   9.7562 312.2846  1.00338020   269
MEV-2                   
1 46113U 20056B   20250.04413223 -.00000085  00000-0  00000+0 0  9999
2 46113   3.6163 121.2949 5679467 184.8189 113.1302  1.89665302   424
GALAXY 30               
1 46114U 20056C   20253.05557334 -.00000182  00000-0  00000-0 0  9995
2 46114   0.0163 355.8041 0000519 224.9825 232.3236  1.00272981   293
ARIANE 5 DEB [SYLDA]    
1 46115U 20056D   20252.73045521  .00003997  00000-0  20646-2 0  9996
2 46115   6.0478 114.9450 7267677 197.4140 110.3780  2.28328403   547
ARIANE 5 R/B            
1 46116U 20056E   20252.69408877  .00000162  00000-0  18735-3 0  9997
2 46116   5.8145 117.4740 7268417 194.8132 119.6073  2.28681443   555
STARLINK-1585           
1 46117U 20057A   20253.25001157  .00023914  00000-0  23179-3 0  9990
2 46117  52.9981 333.6315 0008205 284.8299  16.6846 15.66239062  1828
STARLINK-1588           
1 46118U 20057B   20253.25001157  .00025267  00000-0  28066-3 0  9994
2 46118  53.0002 333.9901 0001099  57.3443  75.4526 15.62776177  1778
STARLINK-1593           
1 46119U 20057C   20253.50001157 -.00105592  00000-0 -11590-2 0  9998
2 46119  52.9998 332.7577 0001315  51.5635  52.3699 15.62826344  4126
STARLINK-1601           
1 46120U 20057D   20253.50001157 -.00082015  00000-0 -89761-3 0  9990
2 46120  52.9994 332.7468 0001494  60.0576  50.2930 15.62788903  4123
STARLINK-1602           
1 46121U 20057E   20253.50001157 -.00003335  00000-0 -26401-4 0  9992
2 46121  52.9983 332.4109 0001183  51.3929 222.4922 15.66238051  4123
STARLINK-1604           
1 46122U 20057F   20253.50001157 -.00000912  00000-0 -40913-5 0  9996
2 46122  53.0001 332.7406 0004136 289.7546 183.9161 15.62720674  4122
STARLINK-1605           
1 46123U 20057G   20253.25001157 -.00082821  00000-0 -90449-3 0  9995
2 46123  53.0005 333.9521 0007584 273.5870 237.7477 15.62804366  1776
STARLINK-1614           
1 46124U 20057H   20253.50001157 -.00005628  00000-0 -55556-4 0  9995
2 46124  52.9998 332.7340 0004367 282.2291 193.8210 15.62769879  4120
STARLINK-1618           
1 46125U 20057J   20253.50001157 -.00061039  00000-0 -66425-3 0  9990
2 46125  52.9996 332.7532 0001438  47.9620  54.6650 15.62811039  4128
